{
  "type": "FeatureCollection",
  "features": [
    {
      "type": "Feature",
      "properties": {
        "norad_id": 66489,
        "name": "STARLINK-35696",
        "group": "last-30-days",
        "lat": 41.68634633513304,
        "lon": -161.75127862107914,
        "alt_km": 409.46365884310944,
        "timestamp": "2025-12-12T16:50:31.910116+00:00",
        "meta_object_name": "STARLINK-35696",
        "meta_object_id": "2025-263E",
        "meta_epoch": "2025-12-12T00:00:04.999968",
        "meta_mean_motion": 15.50507447,
        "meta_eccentricity": 0.00017622,
        "meta_inclination": 43.0003,
        "meta_ra_of_asc_node": 129.4797,
        "meta_arg_of_pericenter": 268.2838,
        "meta_mean_anomaly": 207.4369,
        "meta_ephemeris_type": 0,
        "meta_classification_type": "U",
        "meta_norad_cat_id": 66489,
        "meta_element_set_no": 999,
        "meta_rev_at_epoch": 551,
        "meta_bstar": 0.0011909242,
        "meta_mean_motion_dot": 0.00069973,
        "meta_mean_motion_ddot": 0,
        "tle_line1": "1 66489U 25263E   25346.00005787  .00069973  00000+0  11909-2 0  9993",
        "tle_line2": "2 66489  43.0003 129.4797 0001762 268.2838 207.4369 15.50507447  5517"
      },
      "geometry": {
        "type": "Point",
        "coordinates": [
          -161.75127862107914,
          41.68634633513304
        ]
      }
    },
    {
      "type": "Feature",
      "properties": {
        "norad_id": 66490,
        "name": "STARLINK-35693",
        "group": "last-30-days",
        "lat": 15.105857793112394,
        "lon": 142.3457729200373,
        "alt_km": 441.82537145199603,
        "timestamp": "2025-12-12T16:50:31.910126+00:00",
        "meta_object_name": "STARLINK-35693",
        "meta_object_id": "2025-263F",
        "meta_epoch": "2025-12-12T06:00:00.999648",
        "meta_mean_motion": 15.40620945,
        "meta_eccentricity": 0.00017436,
        "meta_inclination": 43.0004,
        "meta_ra_of_asc_node": 128.1115,
        "meta_arg_of_pericenter": 278.8622,
        "meta_mean_anomaly": 115.1228,
        "meta_ephemeris_type": 0,
        "meta_classification_type": "U",
        "meta_norad_cat_id": 66490,
        "meta_element_set_no": 999,
        "meta_rev_at_epoch": 555,
        "meta_bstar": 0.002466448,
        "meta_mean_motion_dot": 0.00103867,
        "meta_mean_motion_ddot": 0,
        "tle_line1": "1 66490U 25263F   25346.25001157  .00103867  00000+0  24664-2 0  9992",
        "tle_line2": "2 66490  43.0004 128.1115 0001743 278.8622 115.1228 15.40620945  5558"
      },
      "geometry": {
        "type": "Point",
        "coordinates": [
          142.3457729200373,
          15.105857793112394
        ]
      }
    },
    {
      "type": "Feature",
      "properties": {
        "norad_id": 66491,
        "name": "STARLINK-35663",
        "group": "last-30-days",
        "lat": 42.58121614133582,
        "lon": -154.18926415257744,
        "alt_km": 408.664463617657,
        "timestamp": "2025-12-12T16:50:31.910136+00:00",
        "meta_object_name": "STARLINK-35663",
        "meta_object_id": "2025-263G",
        "meta_epoch": "2025-12-12T00:00:04.999968",
        "meta_mean_motion": 15.50532857,
        "meta_eccentricity": 0.00017514,
        "meta_inclination": 43.0002,
        "meta_ra_of_asc_node": 129.4654,
        "meta_arg_of_pericenter": 320.8425,
        "meta_mean_anomaly": 160.4832,
        "meta_ephemeris_type": 0,
        "meta_classification_type": "U",
        "meta_norad_cat_id": 66491,
        "meta_element_set_no": 999,
        "meta_rev_at_epoch": 551,
        "meta_bstar": 0.001170411,
        "meta_mean_motion_dot": 0.00068814,
        "meta_mean_motion_ddot": 0,
        "tle_line1": "1 66491U 25263G   25346.00005787  .00068814  00000+0  11704-2 0  9992",
        "tle_line2": "2 66491  43.0002 129.4654 0001751 320.8425 160.4832 15.50532857  5512"
      },
      "geometry": {
        "type": "Point",
        "coordinates": [
          -154.18926415257744,
          42.58121614133582
        ]
      }
    },
    {
      "type": "Feature",
      "properties": {
        "norad_id": 66492,
        "name": "STARLINK-35673",
        "group": "last-30-days",
        "lat": -1.657151329210164,
        "lon": 123.78827027253902,
        "alt_km": 443.9113998639841,
        "timestamp": "2025-12-12T16:50:31.910146+00:00",
        "meta_object_name": "STARLINK-35673",
        "meta_object_id": "2025-263H",
        "meta_epoch": "2025-12-12T06:00:00.999648",
        "meta_mean_motion": 15.40633135,
        "meta_eccentricity": 0.00014964,
        "meta_inclination": 43.0004,
        "meta_ra_of_asc_node": 128.1711,
        "meta_arg_of_pericenter": 268.7337,
        "meta_mean_anomaly": 100.347,
        "meta_ephemeris_type": 0,
        "meta_classification_type": "U",
        "meta_norad_cat_id": 66492,
        "meta_element_set_no": 999,
        "meta_rev_at_epoch": 555,
        "meta_bstar": 0.0021733882,
        "meta_mean_motion_dot": 0.00091375,
        "meta_mean_motion_ddot": 0,
        "tle_line1": "1 66492U 25263H   25346.25001157  .00091375  00000+0  21734-2 0  9999",
        "tle_line2": "2 66492  43.0004 128.1711 0001496 268.7337 100.3470 15.40633135  5558"
      },
      "geometry": {
        "type": "Point",
        "coordinates": [
          123.78827027253902,
          -1.657151329210164
        ]
      }
    },
    {
      "type": "Feature",
      "properties": {
        "norad_id": 66493,
        "name": "STARLINK-35597",
        "group": "last-30-days",
        "lat": 42.90184041977393,
        "lon": -148.88226101635507,
        "alt_km": 409.25873708871677,
        "timestamp": "2025-12-12T16:50:31.910156+00:00",
        "meta_object_name": "STARLINK-35597",
        "meta_object_id": "2025-263J",
        "meta_epoch": "2025-12-12T00:00:04.999968",
        "meta_mean_motion": 15.50514915,
        "meta_eccentricity": 0.00017368,
        "meta_inclination": 43.0003,
        "meta_ra_of_asc_node": 129.455,
        "meta_arg_of_pericenter": 274.9887,
        "meta_mean_anomaly": 210.3079,
        "meta_ephemeris_type": 0,
        "meta_classification_type": "U",
        "meta_norad_cat_id": 66493,
        "meta_element_set_no": 999,
        "meta_rev_at_epoch": 551,
        "meta_bstar": 0.0011712077,
        "meta_mean_motion_dot": 0.00068817,
        "meta_mean_motion_ddot": 0,
        "tle_line1": "1 66493U 25263J   25346.00005787  .00068817  00000+0  11712-2 0  9996",
        "tle_line2": "2 66493  43.0003 129.4550 0001736 274.9887 210.3079 15.50514915  5517"
      },
      "geometry": {
        "type": "Point",
        "coordinates": [
          -148.88226101635507,
          42.90184041977393
        ]
      }
    },
    {
      "type": "Feature",
      "properties": {
        "norad_id": 66494,
        "name": "STARLINK-35689",
        "group": "last-30-days",
        "lat": 41.80202100506619,
        "lon": -160.97782629403275,
        "alt_km": 417.41018254820756,
        "timestamp": "2025-12-12T16:50:31.910167+00:00",
        "meta_object_name": "STARLINK-35689",
        "meta_object_id": "2025-263K",
        "meta_epoch": "2025-12-12T00:00:04.999968",
        "meta_mean_motion": 15.50772647,
        "meta_eccentricity": 9.158e-05,
        "meta_inclination": 43.0002,
        "meta_ra_of_asc_node": 129.4704,
        "meta_arg_of_pericenter": 269.0531,
        "meta_mean_anomaly": 210.4733,
        "meta_ephemeris_type": 0,
        "meta_classification_type": "U",
        "meta_norad_cat_id": 66494,
        "meta_element_set_no": 999,
        "meta_rev_at_epoch": 551,
        "meta_bstar": -0.037144127,
        "meta_mean_motion_dot": -0.01964096,
        "meta_mean_motion_ddot": 0,
        "tle_line1": "1 66494U 25263K   25346.00005787 -.01964096  00000+0 -37144-1 0  9990",
        "tle_line2": "2 66494  43.0002 129.4704 0000915 269.0531 210.4733 15.50772647  5513"
      },
      "geometry": {
        "type": "Point",
        "coordinates": [
          -160.97782629403275,
          41.80202100506619
        ]
      }
    },
    {
      "type": "Feature",
      "properties": {
        "norad_id": 66495,
        "name": "STARLINK-35832",
        "group": "last-30-days",
        "lat": 42.96869804758384,
        "lon": -146.24150694618783,
        "alt_km": 409.11428035264726,
        "timestamp": "2025-12-12T16:50:31.910177+00:00",
        "meta_object_name": "STARLINK-35832",
        "meta_object_id": "2025-263L",
        "meta_epoch": "2025-12-12T00:00:04.999968",
        "meta_mean_motion": 15.50528078,
        "meta_eccentricity": 0.0001618,
        "meta_inclination": 43.0001,
        "meta_ra_of_asc_node": 129.4504,
        "meta_arg_of_pericenter": 288.52,
        "meta_mean_anomaly": 198.6964,
        "meta_ephemeris_type": 0,
        "meta_classification_type": "U",
        "meta_norad_cat_id": 66495,
        "meta_element_set_no": 999,
        "meta_rev_at_epoch": 551,
        "meta_bstar": 0.00096668704,
        "meta_mean_motion_dot": 0.00056678,
        "meta_mean_motion_ddot": 0,
        "tle_line1": "1 66495U 25263L   25346.00005787  .00056678  00000+0  96669-3 0  9995",
        "tle_line2": "2 66495  43.0001 129.4504 0001618 288.5200 198.6964 15.50528078  5511"
      },
      "geometry": {
        "type": "Point",
        "coordinates": [
          -146.24150694618783,
          42.96869804758384
        ]
      }
    }
  ]
}